NORAD_CAT_ID,OBJECT_NAME,OBJECT_TYPE,EPOCH,MEAN_MOTION,ECCENTRICITY,INCLINATION,RA_OF_ASC_NODE,ARG_OF_PERICENTER,MEAN_ANOMALY,BSTAR,MEAN_MOTION_DOT,MEAN_MOTION_DDOT,TLE_LINE0,TLE_LINE1,TLE_LINE2,SEMIMAJOR_AXIS,PERIOD,APOGEE,PERIGEE,DECAYED
49421.0,STARLINK-3112,PAYLOAD,2022-08-11 13:32:46,15.08831159,0.0001745,53.2178,332.5566,45.86600000000001,314.2475,0.00015619,2.198e-05,0.0,0 STARLINK-3112,1 49421U 21104P   22223.56442472  .00002198  00000-0  15619-3 0  9998,2 49421  53.2178 332.5566 0001745  45.8660 314.2475 15.08831159 41444,6917.906999999997,95.438,540.98,538.565,0.0
49421.0,STARLINK-3112,PAYLOAD,2022-08-11 18:18:55,15.08835376,0.0001716,53.2179,331.6638,53.8723,306.2428,0.0001579,2.226e-05,0.0,0 STARLINK-3112,1 49421U 21104P   22223.76314342  .00002226  00000-0  15790-3 0  9996,2 49421  53.2179 331.6638 0001716  53.8723 306.2428 15.08835376 42559,6917.895,95.438,540.947,538.572,0.0
49421.0,STARLINK-3112,PAYLOAD,2022-08-12 13:23:33,15.08827379,0.000167,53.2177,328.0957,57.846,302.2694,0.00024076,3.544e-05,0.0,0 STARLINK-3112,1 49421U 21104P   22224.55803037  .00003544  00000-0  24076-3 0  9999,2 49421  53.2177 328.0957 0001670  57.8460 302.2694 15.08827379 41590,6917.919,95.438,540.939,538.629,0.0
49421.0,STARLINK-3112,PAYLOAD,2022-08-12 18:09:43,15.08833018,0.0001641,53.2177,327.2037,55.56399999999999,304.5507,0.00027488,4.089e-05,0.0,0 STARLINK-3112,1 49421U 21104P   22224.75674885  .00004089  00000-0  27488-3 0  9993,2 49421  53.2177 327.2037 0001641  55.5640 304.5507 15.08833018 41622,6917.901999999999,95.438,540.9019999999998,538.632,0.0
49421.0,STARLINK-3112,PAYLOAD,2022-08-13 13:14:20,15.08843149,0.0001636,53.2177,323.6352,56.5027,303.6121,2.033e-05,3.6e-07,0.0,0 STARLINK-3112,1 49421U 21104P   22225.55162792  .00000036  00000-0  20330-4 0  9999,2 49421  53.2177 323.6352 0001636  56.5027 303.6121 15.08843149 41747,6917.871,95.437,540.868,538.604,0.0
49421.0,STARLINK-3112,PAYLOAD,2022-08-13 18:00:29,15.08843708,0.0001696,53.2179,322.7435,55.4597,304.6555,3.1152e-05,2.08e-06,0.0,0 STARLINK-3112,1 49421U 21104P   22225.75034620  .00000208  00000-0  31152-4 0  9994,2 49421  53.2179 322.7435 0001696  55.4597 304.6555 15.08843708 41773,6917.869000000002,95.437,540.9069999999998,538.561,0.0
49421.0,STARLINK-3112,PAYLOAD,2022-08-14 11:29:45,15.08834701,0.0001569,53.2175,319.4717,55.70399999999999,304.41,-4.2187e-05,-9.59e-06,0.0,0 STARLINK-3112,1 49421U 21104P   22226.47899319 -.00000959  00000-0 -42187-4 0  9993,2 49421  53.2175 319.4717 0001569  55.7040 304.4100 15.08834701 42969,6917.897,95.438,540.847,538.6759999999998,0.0
49421.0,STARLINK-3112,PAYLOAD,2022-08-14 17:51:17,15.08839198,0.0001558,53.2174,318.2819,57.6476,302.4667,1.42e-05,-6.2e-07,0.0,0 STARLINK-3112,1 49421U 21104P   22226.74394863 -.00000062  00000-0  14200-4 0  9996,2 49421  53.2174 318.2819 0001558  57.6476 302.4667 15.08839198 43007,6917.8830000000025,95.438,540.826,538.67,0.0
49421.0,STARLINK-3112,PAYLOAD,2022-08-15 09:45:08,15.08835074,0.0001539,53.2173,315.309,50.6705,309.4423,1.4573e-05,-5.6e-07,0.0,0 STARLINK-3112,1 49421U 21104P   22227.40635085 -.00000056  00000-0  14573-4 0  9990,2 49421  53.2173 315.3090 0001539  50.6705 309.4423 15.08835074 42029,6917.895,95.438,540.825,538.696,0.0
49421.0,STARLINK-3112,PAYLOAD,2022-08-15 17:42:04,15.088335699999998,0.0001558,53.2172,313.8222,50.3019,309.8111,1.6949e-06,-2.61e-06,0.0,0 STARLINK-3112,1 49421U 21104P   22227.73755356 -.00000261  00000-0  16949-5 0  9998,2 49421  53.2172 313.8222 0001558  50.3019 309.8111 15.08833570 43156,6917.9,95.438,540.8430000000002,538.687,0.0
49421.0,STARLINK-3112,PAYLOAD,2022-08-16 11:11:18,15.08841632,0.0001561,53.217,310.5513,49.4709,310.6419,0.00010651,1.408e-05,0.0,0 STARLINK-3112,1 49421U 21104P   22228.46618808  .00001408  00000-0  10651-3 0  9994,2 49421  53.2170 310.5513 0001561  49.4709 310.6419 15.08841632 43261,6917.875,95.437,540.82,538.661,0.0
49421.0,STARLINK-3112,PAYLOAD,2022-08-17 11:02:05,15.08837374,0.000161,53.217,306.0906,50.2889,309.8245,9.6768e-05,1.252e-05,0.0,0 STARLINK-3112,1 49421U 21104P   22229.45979102  .00001252  00000-0  96768-4 0  9992,2 49421  53.2170 306.0906 0001610  50.2889 309.8245 15.08837374 43413,6917.888000000001,95.438,540.867,538.64,0.0
49421.0,STARLINK-3112,PAYLOAD,2022-08-18 10:52:53,15.0883234,0.0001791,53.217,301.6309,50.8838,309.2314,-7.030199999999999e-05,-1.407e-05,0.0,0 STARLINK-3112,1 49421U 21104P   22230.45340269 -.00001407  00000-0 -70302-4 0  9990,2 49421  53.2170 301.6309 0001791  50.8838 309.2314 15.08832340 42486,6917.904,95.438,541.008,538.53,0.0
49421.0,STARLINK-3112,PAYLOAD,2022-08-18 15:39:03,15.08835621,0.0001769,53.2172,300.7385,53.559,306.5565,-3.0061e-05,-7.66e-06,0.0,0 STARLINK-3112,1 49421U 21104P   22230.65211975 -.00000766  00000-0 -30061-4 0  9998,2 49421  53.2172 300.7385 0001769  53.5590 306.5565 15.08835621 43598,6917.894,95.438,540.9830000000002,538.535,0.0
49421.0,STARLINK-3112,PAYLOAD,2022-08-19 10:43:40,15.08843535,0.000181,53.2169,297.1706,50.4854,309.6298,8.6654e-05,1.091e-05,0.0,0 STARLINK-3112,1 49421U 21104P   22231.44699164  .00001091  00000-0  86654-4 0  9995,2 49421  53.2169 297.1706 0001810  50.4854 309.6298 15.08843535 42630,6917.87,95.437,540.987,538.482,0.0
49421.0,STARLINK-3112,PAYLOAD,2022-08-20 10:34:27,15.08834456,0.0001831999999999,53.2166,292.71,51.996,308.1198,0.00012863,1.759e-05,0.0,0 STARLINK-3112,1 49421U 21104P   22232.44059714  .00001759  00000-0  12863-3 0  9998,2 49421  53.2166 292.7100 0001832  51.9960 308.1198 15.08834456 43865,6917.897,95.438,541.03,538.495,0.0
49421.0,STARLINK-3112,PAYLOAD,2022-08-20 13:45:13,15.08836859,0.000178,53.2171,292.1154,49.8172,310.2976,7.8791e-05,9.66e-06,0.0,0 STARLINK-3112,1 49421U 21104P   22232.57307716  .00000966  00000-0  78791-4 0  9992,2 49421  53.2171 292.1154 0001780  49.8172 310.2976 15.08836859 42807,6917.89,95.438,540.986,538.524,0.0
49421.0,STARLINK-3112,PAYLOAD,2022-08-21 08:49:52,15.08835289,0.0001771999999999,53.2165,288.5463,46.5965,313.5174,-6.730600000000001e-05,-1.359e-05,0.0,0 STARLINK-3112,1 49421U 21104P   22233.36796360 -.00001359  00000-0 -67306-4 0  9996,2 49421  53.2165 288.5463 0001772  46.5965 313.5174 15.08835289 42922,6917.895,95.438,540.986,538.534,0.0
49421.0,STARLINK-3112,PAYLOAD,2022-08-21 13:36:01,15.08833889,0.0001792,53.2165,287.6545,46.125,313.9890000000001,-7.5922e-05,-1.496e-05,0.0,0 STARLINK-3112,1 49421U 21104P   22233.56668519 -.00001496  00000-0 -75922-4 0  9997,2 49421  53.2165 287.6545 0001792  46.1250 313.9890 15.08833889 44035,6917.899,95.438,541.004,538.524,0.0
49421.0,STARLINK-3112,PAYLOAD,2022-08-22 10:16:02,15.08835659,0.0001785,53.216,283.7881,44.3719,315.7416,6.9353e-06,-1.78e-06,0.0,0 STARLINK-3112,1 49421U 21104P   22234.42780313 -.00000178  00000-0  69353-5 0  9997,2 49421  53.2160 283.7881 0001785  44.3719 315.7416 15.08835659 43087,6917.894,95.438,540.994,538.524,0.0
49421.0,STARLINK-3112,PAYLOAD,2022-08-22 19:48:20,15.08837812,0.0001806,53.216,282.004,44.3661,315.7475,1.9834e-05,2.8e-07,0.0,0 STARLINK-3112,1 49421U 21104P   22234.82524204  .00000028  00000-0  19834-4 0  9997,2 49421  53.2160 282.0040 0001806  44.3661 315.7475 15.08837812 44221,6917.887,95.438,541.001,538.503,0.0
49421.0,STARLINK-3112,PAYLOAD,2022-08-23 11:42:12,15.08835186,0.0001788,53.2162,279.0307,45.4793,314.6345,9.3482e-05,1.2e-05,0.0,0 STARLINK-3112,1 49421U 21104P   22235.48764243  .00001200  00000-0  93482-4 0  9993,2 49421  53.2162 279.0307 0001788  45.4793 314.6345 15.08835186 43249,6917.895,95.438,540.997,538.523,0.0
49421.0,STARLINK-3112,PAYLOAD,2022-08-23 19:39:07,15.08837595,0.0001815,53.2163,277.5439,45.962,314.1521,9.8528e-05,1.28e-05,0.0,0 STARLINK-3112,1 49421U 21104P   22235.81884177  .00001280  00000-0  98528-4 0  9993,2 49421  53.2163 277.5439 0001815  45.9620 314.1521 15.08837595 43296,6917.888000000001,95.438,541.008,538.497,0.0
49421.0,STARLINK-3112,PAYLOAD,2022-08-24 02:00:40,15.08841056,0.0001821999999999,53.2161,276.3541,45.5998,314.5143,0.00010355,1.36e-05,0.0,0 STARLINK-3112,1 49421U 21104P   22236.08379940  .00001360  00000-0  10355-3 0  9990,2 49421  53.2161 276.3541 0001822  45.5998 314.5143 15.08841056 44413,6917.877,95.437,541.003,538.482,0.0
49421.0,STARLINK-3112,PAYLOAD,2022-08-24 08:22:12,15.08842568,0.0001839,53.216,275.1645,45.5364,314.5778,7.7502e-05,9.46e-06,0.0,0 STARLINK-3112,1 49421U 21104P   22236.34875896  .00000946  00000-0  77502-4 0  9997,2 49421  53.2160 275.1645 0001839  45.5364 314.5778 15.08842568 43376,6917.873000000001,95.437,541.01,538.465,0.0
49421.0,STARLINK-3112,PAYLOAD,2022-08-24 13:08:22,15.08843704,0.0001857,53.216,274.2724,45.5103,314.6041,8.1234e-05,1.005e-05,0.0,0 STARLINK-3112,1 49421U 21104P   22236.54747761  .00001005  00000-0  81234-4 0  9992,2 49421  53.2160 274.2724 0001857  45.5103 314.6041 15.08843704 43406,6917.869000000002,95.437,541.019,538.4490000000002,0.0
49421.0,STARLINK-3112,PAYLOAD,2022-08-25 11:23:46,15.08837005,0.0001882,53.216,270.1092,47.0464,313.0686,-2.9879e-05,-7.64e-06,0.0,0 STARLINK-3112,1 49421U 21104P   22237.47484412 -.00000764  00000-0 -29879-4 0  9996,2 49421  53.2160 270.1092 0001882  47.0464 313.0686 15.08837005 43544,6917.89,95.438,541.056,538.453,0.0
49421.0,STARLINK-3112,PAYLOAD,2022-08-25 19:20:42,15.08835564,0.0001911,53.2161,268.6224,47.2485,312.8668,-4.0801e-05,-9.37e-06,0.0,0 STARLINK-3112,1 49421U 21104P   22237.80604590 -.00000937  00000-0 -40801-4 0  9994,2 49421  53.2161 268.6224 0001911  47.2485 312.8668 15.08835564 43592,6917.894,95.438,541.081,538.437,0.0
49421.0,STARLINK-3112,PAYLOAD,2022-08-26 11:14:33,15.08838002,0.0002014,53.2161,265.6489,48.715,311.4016,-3.1505e-05,-7.9e-06,0.0,0 STARLINK-3112,1 49421U 21104P   22238.46844505 -.00000790  00000-0 -31505-4 0  9997,2 49421  53.2161 265.6489 0002014  48.7150 311.4016 15.08838002 43695,6917.886,95.438,541.145,538.3580000000002,0.0
